     3.04           N: GNSS NAV DATA    M: Mixed            RINEX VERSION / TYPE
CONVBIN 2.4.3                           20230620 000230 UTC PGM / RUN BY / DATE 
format: NovAtel OEM7                                        COMMENT             
log: /home/cssrg/Desktop/BIN2_temp/RUTI20231700.gps         COMMENT             
GPSA    .1770D-07   .2235D-07  -.1192D-06  -.1192D-06       IONOSPHERIC CORR    
GPSB    .1229D+06   .1638D+06  -.1966D+06  -.2621D+06       IONOSPHERIC CORR    
QZSA    .1863D-07   .7451D-08  -.3576D-06  -.7749D-06       IONOSPHERIC CORR    
QZSB    .1311D+06   .2458D+06   .9175D+06   .3015D+07       IONOSPHERIC CORR    
GPUT  -.2793967724D-08 -.799360578D-14 319488 2267          TIME SYSTEM CORR    
QZUT  -.5587935448D-08  .000000000D+00 356352 2267          TIME SYSTEM CORR    
    18    18  2185     7                                    LEAP SECONDS        
                                                            END OF HEADER       
E13 2023 06 19 09 20 00 -.192887382582D-04 -.710542735760D-13  .000000000000D+00
      .790000000000D+02 -.330000000000D+02  .281583157640D-08  .219014646953D+01
     -.168010592461D-05  .180059694685D-03 -.279583036900D-05  .544060565186D+04
      .124200000000D+06  .111758708954D-07  .183920486590D+01 -.596046447754D-07
      .999291901456D+00  .414187500000D+03  .800636975801D+00 -.576666877633D-08
     -.230366738556D-09  .258000000000D+03  .226700000000D+04  .000000000000D+00
      .312000000000D+01  .000000000000D+00  .558793544769D-08  .582076609135D-08
      .124954000000D+06  .000000000000D+00
S37 2023  6 19 10 42 40 -.953674316406D-06  .000000000000D+00  .124958000000D+06
     -.253732970400D+05  .625000000000D-05  .000000000000D+00  .100000000000D+01
      .336776562400D+05  .371250000000D-03  .000000000000D+00  .819200000000D+04
      .827360000000D+01  .136000000000D-02  .000000000000D+00  .000000000000D+00
E13 2023 06 19 10 30 00 -.192888546735D-04 -.284217094304D-13  .000000000000D+00
      .790000000000D+02 -.330000000000D+02  .281583157640D-08  .219014646953D+01
     -.168010592461D-05  .180059694685D-03 -.279583036900D-05  .544060565186D+04
      .124200000000D+06  .111758708954D-07  .183920486590D+01 -.596046447754D-07
      .999291901456D+00  .414187500000D+03  .800636975801D+00 -.576666877633D-08
     -.230366738556D-09  .258000000000D+03  .226700000000D+04  .000000000000D+00
      .312000000000D+01  .000000000000D+00  .558793544769D-08  .582076609135D-08
      .124950000000D+06  .000000000000D+00
S37 2023  6 19 10 43 28 -.953674316406D-06  .000000000000D+00  .125018000000D+06
     -.253732965600D+05  .875000000000D-05  .000000000000D+00  .100000000000D+01
      .336776785600D+05  .371875000000D-03  .000000000000D+00  .819200000000D+04
      .835520000000D+01  .136000000000D-02  .000000000000D+00  .000000000000D+00
G12 2023 06 19 12 00 00 -.390485394746D-03 -.466116034659D-11  .000000000000D+00
      .790000000000D+02  .455312500000D+02  .433160900033D-08 -.178088710836D+01
      .253878533840D-05  .874011497945D-02  .981241464615D-05  .515359307098D+04
      .129600000000D+06  .163912773132D-06 -.148008458906D+00  .150874257088D-06
      .965567928306D+00  .193531250000D+03  .138081613377D+01 -.759281627127D-08
     -.361443627006D-09  .100000000000D+01  .226700000000D+04  .000000000000D+00
      .200000000000D+01  .000000000000D+00 -.125728547573D-07  .790000000000D+02
      .125046000000D+06  .400000000000D+01
S37 2023  6 19 10 44 32 -.953674316406D-06  .000000000000D+00  .125078000000D+06
     -.253732960000D+05  .112500000000D-04  .000000000000D+00  .100000000000D+01
      .336777008800D+05  .373125000000D-03  .000000000000D+00  .819200000000D+04
      .843680000000D+01  .135600000000D-02  .000000000000D+00  .000000000000D+00
S27 2023  6 19 10 45 20  .237487256527D-07  .318323145621D-10  .125096000000D+06
      .241539056800D+05  .121500000000D-02 -.125000000000D-07  .100000000000D+01
      .345756253600D+05 -.852500000000D-03 -.125000000000D-07  .819200000000D+04
      .220092000000D+02  .124400000000D-02 -.125000000000D-06  .000000000000D+00
S32 2023  6 19 10 45 20  .375322997570D-06  .109139364213D-09  .125096000000D+06
     -.261590992000D+04 -.359375000000D-03  .187500000000D-06  .000000000000D+00
      .420831150400D+05  .125875000000D-02  .375000000000D-07  .409600000000D+04
      .335956000000D+02  .112000000000D-03 -.187500000000D-06  .000000000000D+00
S28 2023  6 19 10 45 20  .510830432177D-06  .927684595808D-10  .125096000000D+06
      .512440680000D+04  .576875000000D-03  .625000000000D-07  .000000000000D+00
      .418573438400D+05  .305625000000D-03  .000000000000D+00  .409600000000D+04
     -.719600000000D+00 -.972000000000D-03  .000000000000D+00  .000000000000D+00
S37 2023  6 19 10 45 36 -.953674316406D-06  .000000000000D+00  .125144000000D+06
     -.253732951200D+05  .137500000000D-04  .000000000000D+00  .100000000000D+01
      .336777255200D+05  .373750000000D-03  .000000000000D+00  .819200000000D+04
      .852600000000D+01  .135200000000D-02  .000000000000D+00  .000000000000D+00
R23 2023 06 19 10 45 00 -.865776091814D-04 -.909494701773D-12  .125160000000D+06
      .955994384766D+04 -.667043685913D+00  .372529029846D-08  .000000000000D+00
      .475209912109D+04  .310851383209D+01  .186264514923D-08  .300000000000D+01
      .231514921875D+05 -.362246513367D+00  .000000000000D+00  .000000000000D+00
S37 2023  6 19 10 46 40 -.953674316406D-06  .000000000000D+00  .125204000000D+06
     -.253732942400D+05  .162500000000D-04  .000000000000D+00  .100000000000D+01
      .336777480000D+05  .374375000000D-03  .000000000000D+00  .819200000000D+04
      .860720000000D+01  .134800000000D-02  .000000000000D+00  .000000000000D+00
S37 2023  6 19 10 47 44 -.953674316406D-06  .000000000000D+00  .125264000000D+06
     -.253732932000D+05  .187500000000D-04  .000000000000D+00  .100000000000D+01
      .336777704800D+05  .375000000000D-03  .000000000000D+00  .819200000000D+04
      .868800000000D+01  .134800000000D-02  .000000000000D+00  .000000000000D+00
S37 2023  6 19 10 48 48 -.953674316406D-06  .000000000000D+00  .125324000000D+06
     -.253732920000D+05  .212500000000D-04  .000000000000D+00  .100000000000D+01
      .336777930400D+05  .376250000000D-03  .000000000000D+00  .819200000000D+04
      .876880000000D+01  .134400000000D-02  .000000000000D+00  .000000000000D+00
S27 2023  6 19 10 49 36  .316649675369D-07  .363797880709D-10  .125354000000D+06
      .241542163200D+05  .113187500000D-02 -.125000000000D-07  .100000000000D+01
      .345754067200D+05 -.928125000000D-03 -.125000000000D-07  .819200000000D+04
      .223236000000D+02  .121200000000D-02 -.125000000000D-06  .000000000000D+00
S32 2023  6 19 10 49 36  .403262674809D-06  .104591890704D-09  .125354000000D+06
     -.261599576000D+04 -.348750000000D-03  .187500000000D-06  .000000000000D+00
      .420834384800D+05  .100000000000D-02  .375000000000D-07  .409600000000D+04
      .336180000000D+02  .720000000000D-04 -.187500000000D-06  .000000000000D+00
S28 2023  6 19 10 49 36  .534579157829D-06  .882209860720D-10  .125354000000D+06
      .512455656000D+04  .486250000000D-03  .625000000000D-07  .000000000000D+00
      .418574220800D+05  .118750000000D-04  .000000000000D+00  .409600000000D+04
     -.968400000000D+00 -.964000000000D-03  .000000000000D+00  .000000000000D+00
S37 2023  6 19 10 49 36 -.953674316406D-06  .000000000000D+00  .125384000000D+06
     -.253732906400D+05  .237500000000D-04  .000000000000D+00  .100000000000D+01
      .336778156000D+05  .376875000000D-03  .000000000000D+00  .819200000000D+04
      .884920000000D+01  .134000000000D-02  .000000000000D+00  .000000000000D+00
S37 2023  6 19 10 50 40 -.953674316406D-06  .000000000000D+00  .125450000000D+06
     -.253732890400D+05  .262500000000D-04  .000000000000D+00  .100000000000D+01
      .336778404800D+05  .377500000000D-03  .000000000000D+00  .819200000000D+04
      .893760000000D+01  .133600000000D-02  .000000000000D+00  .000000000000D+00
E26 2023 06 19 10 30 00  .138575676829D-03  .110986775326D-10  .000000000000D+00
      .800000000000D+02 -.289062500000D+02  .284011830233D-08  .512217927841D+00
     -.154972076416D-05  .116582727060D-03 -.281259417534D-05  .544060405159D+04
      .124800000000D+06 -.372529029846D-07  .184073783727D+01 -.558793544769D-07
      .992608961050D+00  .418437500000D+03  .174158682943D+01 -.580809907350D-08
     -.213580325049D-09  .258000000000D+03  .226700000000D+04  .000000000000D+00
      .312000000000D+01  .000000000000D+00 -.372529029846D-08 -.419095158577D-08
      .125464000000D+06  .000000000000D+00
E07 2023 06 19 10 30 00 -.537888263352D-04 -.281374923361D-11  .000000000000D+00
      .800000000000D+02 -.186250000000D+02  .291012121823D-08  .176357070213D+01
     -.897794961929D-06  .375552917831D-03  .996887683868D-05  .544061504745D+04
      .124800000000D+06 -.128522515297D-06 -.234776748226D+01 -.167638063431D-07
      .958754195709D+00  .125562500000D+03 -.805913602816D+00 -.523021785957D-08
      .722172938544D-09  .258000000000D+03  .226700000000D+04  .000000000000D+00
      .312000000000D+01  .000000000000D+00  .582076609135D-08  .628642737865D-08
      .125464000000D+06  .000000000000D+00
E13 2023 06 19 10 30 00 -.192888546735D-04 -.284217094304D-13  .000000000000D+00
      .800000000000D+02 -.322500000000D+02  .282154610015D-08  .226429898110D+01
     -.161305069923D-05  .179942697287D-03 -.284425914288D-05  .544060590172D+04
      .124800000000D+06  .111758708954D-07  .183920140610D+01 -.614672899246D-07
      .999291755164D+00  .414750000000D+03  .800870011336D+00 -.576809740727D-08
     -.229652423088D-09  .258000000000D+03  .226700000000D+04  .000000000000D+00
      .312000000000D+01  .000000000000D+00  .558793544769D-08  .582076609135D-08
      .125464000000D+06  .000000000000D+00
